[{"OBJECT_NAME":"YAOGAN-30 08A","OBJECT_ID":"2020-076A","EPOCH":"2026-03-09T23:16:56.591616","MEAN_MOTION":15.02157833,"ECCENTRICITY":0.00011165,"INCLINATION":34.995,"RA_OF_ASC_NODE":335.7414,"ARG_OF_PERICENTER":272.5686,"MEAN_ANOMALY":87.4894,"EPHEMERIS_TYPE":0,"CLASSIFICATION_TYPE":"U","NORAD_CAT_ID":46807,"ELEMENT_SET_NO":999,"REV_AT_EPOCH":29318,"BSTAR":0.00031078635,"MEAN_MOTION_DOT":4.146e-5,"MEAN_MOTION_DDOT":0},{"OBJECT_NAME":"STARLINK-30557","OBJECT_ID":"2023-160N","EPOCH":"2026-03-09T01:19:54.971904","MEAN_MOTION":15.02538542,"ECCENTRICITY":9.696e-5,"INCLINATION":43.0007,"RA_OF_ASC_NODE":83.6006,"ARG_OF_PERICENTER":276.5853,"MEAN_ANOMALY":83.4879,"EPHEMERIS_TYPE":0,"CLASSIFICATION_TYPE":"U","NORAD_CAT_ID":58087,"ELEMENT_SET_NO":999,"REV_AT_EPOCH":13282,"BSTAR":-3.776628e-6,"MEAN_MOTION_DOT":-2.55e-6,"MEAN_MOTION_DDOT":0}]
